SL-14 R/B               
1 16496U 86006B   26106.27487807  .00000498  00000+0  49899-4 0  9997
2 16496  82.5282 224.3618 0077334 147.1940 213.4114 14.86880102154791
COSMOS 1743             
1 16719U 86034A   26106.22627644  .00029880  00000+0  34277-3 0  9995
2 16719  82.5316  34.3377 0007061 125.2745 234.9174 15.61886544186102
SL-14 R/B               
1 16792U 86046B   26106.25626621  .00000274  00000+0  28632-4 0  9991
2 16792  82.4836  44.6837 0024659 102.9326 257.4647 14.85627729131987
SL-14 R/B               
1 16882U 86055B   26106.24101499  .00000277  00000+0  29087-4 0  9999
2 16882  82.5175  91.3657 0018186 203.4831 167.1216 14.85676415124942
AJISAI (EGS)            
1 16908U 86061A   26106.23962486 -.00000085  00000+0  85752-4 0  9994
2 16908  50.0114 337.8844 0011400  23.4878 139.0490 12.44515790472672
SL-14 R/B               
1 17567U 87024B   26106.27600042  .00000276  00000+0  28603-4 0  9990
2 17567  82.5285  57.4304 0019369 132.8445 227.4403 14.86168663 93717
COSMOS 1833             
1 17589U 87027A   26106.30819878 -.00000310  00000+0 -14027-3 0  9995
2 17589  70.9161 246.9434 0022564 157.0074 203.2062 14.13037921 15632
SL-16 R/B               
1 17590U 87027B   26106.24317927 -.00000201  00000+0 -75786-4 0  9997
2 17590  71.0033 197.3589 0003117  46.0755 314.0625 14.17168862 20668
SL-14 R/B               
1 17912U 87038B   26106.15549319  .00000261  00000+0  27339-4 0  9994
2 17912  82.4988 261.5012 0020234  44.2075 316.0753 14.85404139 84793
COSMOS 1844             
1 17973U 87041A   26106.02023473 -.00000141  00000+0 -48011-4 0  9998
2 17973  70.9000 315.4382 0032422 322.9266  36.9615 14.14564626  8865
SL-14 R/B               
1 18153U 87055B   26106.05842173  .00000231  00000+0  23846-4 0  9990
2 18153  82.4976 313.8100 0019200 248.6287 111.2880 14.85663227 75480
COSMOS 1867             
1 18187U 87060A   26106.23629036 -.00000071  00000+0  11159-4 0  9991
2 18187  65.0108 201.5534 0015200 280.6259  79.3113 14.31508700 25311
SL-14 R/B               
1 18749U 88001B   26106.12371769  .00000214  00000+0  21876-4 0  9991
2 18749  82.5139 160.1619 0019545 112.9446 247.3835 14.85565184 47587
COSMOS 1933             
1 18958U 88020A   26106.29337729  .00002349  00000+0  11295-3 0  9994
2 18958  82.5153 213.7001 0005367  77.4450 282.7384 15.18336097 55938
SL-3 R/B                
1 19046U 88032B   26106.18773448  .00002744  00000+0  12828-3 0  9998
2 19046  97.5230  89.3296 0027648 102.4864 257.9467 15.20312010 57802
SL-16 R/B               
1 19120U 88039B   26106.11405464 -.00000046  00000+0  89234-6 0  9993
2 19120  71.0166 349.4158 0024050 281.3194  78.5228 14.19622766963698
COSMOS 1953             
1 19210U 88050A   26106.32581884  .00004501  00000+0  15800-3 0  9994
2 19210  82.5046 120.3707 0010553   2.2072 357.9212 15.29095067 43535
