[{"OBJECT_NAME":"SL-14 R/B","OBJECT_ID":"1986-006B","EPOCH":"2026-04-16T06:35:49.465248","MEAN_MOTION":14.86880102,"ECCENTRICITY":0.00773341,"INCLINATION":82.5282,"RA_OF_ASC_NODE":224.3618,"ARG_OF_PERICENTER":147.194,"MEAN_ANOMALY":213.4114,"EPHEMERIS_TYPE":0,"CLASSIFICATION_TYPE":"U","NORAD_CAT_ID":16496,"ELEMENT_SET_NO":999,"REV_AT_EPOCH":15479,"BSTAR":4.9898933e-5,"MEAN_MOTION_DOT":4.98e-6,"MEAN_MOTION_DDOT":0},{"OBJECT_NAME":"COSMOS 1743","OBJECT_ID":"1986-034A","EPOCH":"2026-04-16T05:25:50.284416","MEAN_MOTION":15.61886544,"ECCENTRICITY":0.00070612,"INCLINATION":82.5316,"RA_OF_ASC_NODE":34.3377,"ARG_OF_PERICENTER":125.2745,"MEAN_ANOMALY":234.9174,"EPHEMERIS_TYPE":0,"CLASSIFICATION_TYPE":"U","NORAD_CAT_ID":16719,"ELEMENT_SET_NO":999,"REV_AT_EPOCH":18610,"BSTAR":0.00034276592,"MEAN_MOTION_DOT":0.0002988,"MEAN_MOTION_DDOT":0},{"OBJECT_NAME":"SL-14 R/B","OBJECT_ID":"1986-046B","EPOCH":"2026-04-16T06:09:01.400544","MEAN_MOTION":14.85627729,"ECCENTRICITY":0.00246599,"INCLINATION":82.4836,"RA_OF_ASC_NODE":44.6837,"ARG_OF_PERICENTER":102.9326,"MEAN_ANOMALY":257.4647,"EPHEMERIS_TYPE":0,"CLASSIFICATION_TYPE":"U","NORAD_CAT_ID":16792,"ELEMENT_SET_NO":999,"REV_AT_EPOCH":13198,"BSTAR":2.8632171e-5,"MEAN_MOTION_DOT":2.74e-6,"MEAN_MOTION_DDOT":0},{"OBJECT_NAME":"SL-14 R/B","OBJECT_ID":"1986-055B","EPOCH":"2026-04-16T05:47:03.695136","MEAN_MOTION":14.85676415,"ECCENTRICITY":0.00181864,"INCLINATION":82.5175,"RA_OF_ASC_NODE":91.3657,"ARG_OF_PERICENTER":203.4831,"MEAN_ANOMALY":167.1216,"EPHEMERIS_TYPE":0,"CLASSIFICATION_TYPE":"U","NORAD_CAT_ID":16882,"ELEMENT_SET_NO":999,"REV_AT_EPOCH":12494,"BSTAR":2.9087082e-5,"MEAN_MOTION_DOT":2.77e-6,"MEAN_MOTION_DDOT":0},{"OBJECT_NAME":"AJISAI (EGS)","OBJECT_ID":"1986-061A","EPOCH":"2026-04-16T05:45:03.587904","MEAN_MOTION":12.4451579,"ECCENTRICITY":0.00114005,"INCLINATION":50.0114,"RA_OF_ASC_NODE":337.8844,"ARG_OF_PERICENTER":23.4878,"MEAN_ANOMALY":139.049,"EPHEMERIS_TYPE":0,"CLASSIFICATION_TYPE":"U","NORAD_CAT_ID":16908,"ELEMENT_SET_NO":999,"REV_AT_EPOCH":47267,"BSTAR":8.5751787e-5,"MEAN_MOTION_DOT":-8.5e-7,"MEAN_MOTION_DDOT":0},{"OBJECT_NAME":"SL-14 R/B","OBJECT_ID":"1987-024B","EPOCH":"2026-04-16T06:37:26.436288","MEAN_MOTION":14.86168663,"ECCENTRICITY":0.00193695,"INCLINATION":82.5285,"RA_OF_ASC_NODE":57.4304,"ARG_OF_PERICENTER":132.8445,"MEAN_ANOMALY":227.4403,"EPHEMERIS_TYPE":0,"CLASSIFICATION_TYPE":"U","NORAD_CAT_ID":17567,"ELEMENT_SET_NO":999,"REV_AT_EPOCH":9371,"BSTAR":2.8603019e-5,"MEAN_MOTION_DOT":2.76e-6,"MEAN_MOTION_DDOT":0},{"OBJECT_NAME":"COSMOS 1833","OBJECT_ID":"1987-027A","EPOCH":"2026-04-16T07:23:48.374592","MEAN_MOTION":14.13037921,"ECCENTRICITY":0.00225641,"INCLINATION":70.9161,"RA_OF_ASC_NODE":246.9434,"ARG_OF_PERICENTER":157.0074,"MEAN_ANOMALY":203.2062,"EPHEMERIS_TYPE":0,"CLASSIFICATION_TYPE":"U","NORAD_CAT_ID":17589,"ELEMENT_SET_NO":999,"REV_AT_EPOCH":1563,"BSTAR":-0.0001402724,"MEAN_MOTION_DOT":-3.1e-6,"MEAN_MOTION_DDOT":0},{"OBJECT_NAME":"SL-16 R/B","OBJECT_ID":"1987-027B","EPOCH":"2026-04-16T05:50:10.688928","MEAN_MOTION":14.17168862,"ECCENTRICITY":0.00031179,"INCLINATION":71.0033,"RA_OF_ASC_NODE":197.3589,"ARG_OF_PERICENTER":46.0755,"MEAN_ANOMALY":314.0625,"EPHEMERIS_TYPE":0,"CLASSIFICATION_TYPE":"U","NORAD_CAT_ID":17590,"ELEMENT_SET_NO":999,"REV_AT_EPOCH":2066,"BSTAR":-7.5785527e-5,"MEAN_MOTION_DOT":-2.01e-6,"MEAN_MOTION_DDOT":0},{"OBJECT_NAME":"SL-14 R/B","OBJECT_ID":"1987-038B","EPOCH":"2026-04-16T03:43:54.611616","MEAN_MOTION":14.85404139,"ECCENTRICITY":0.00202347,"INCLINATION":82.4988,"RA_OF_ASC_NODE":261.5012,"ARG_OF_PERICENTER":44.2075,"MEAN_ANOMALY":316.0753,"EPHEMERIS_TYPE":0,"CLASSIFICATION_TYPE":"U","NORAD_CAT_ID":17912,"ELEMENT_SET_NO":999,"REV_AT_EPOCH":8479,"BSTAR":2.7338866e-5,"MEAN_MOTION_DOT":2.61e-6,"MEAN_MOTION_DDOT":0},{"OBJECT_NAME":"COSMOS 1844","OBJECT_ID":"1987-041A","EPOCH":"2026-04-16T00:29:08.280672","MEAN_MOTION":14.14564626,"ECCENTRICITY":0.00324222,"INCLINATION":70.9,"RA_OF_ASC_NODE":315.4382,"ARG_OF_PERICENTER":322.9266,"MEAN_ANOMALY":36.9615,"EPHEMERIS_TYPE":0,"CLASSIFICATION_TYPE":"U","NORAD_CAT_ID":17973,"ELEMENT_SET_NO":999,"REV_AT_EPOCH":886,"BSTAR":-4.8010603e-5,"MEAN_MOTION_DOT":-1.41e-6,"MEAN_MOTION_DDOT":0},{"OBJECT_NAME":"SL-14 R/B","OBJECT_ID":"1987-055B","EPOCH":"2026-04-16T01:24:07.637472","MEAN_MOTION":14.85663227,"ECCENTRICITY":0.00192005,"INCLINATION":82.4976,"RA_OF_ASC_NODE":313.81,"ARG_OF_PERICENTER":248.6287,"MEAN_ANOMALY":111.288,"EPHEMERIS_TYPE":0,"CLASSIFICATION_TYPE":"U","NORAD_CAT_ID":18153,"ELEMENT_SET_NO":999,"REV_AT_EPOCH":7548,"BSTAR":2.3846235e-5,"MEAN_MOTION_DOT":2.31e-6,"MEAN_MOTION_DDOT":0},{"OBJECT_NAME":"COSMOS 1867","OBJECT_ID":"1987-060A","EPOCH":"2026-04-16T05:40:15.487104","MEAN_MOTION":14.315087,"ECCENTRICITY":0.00152006,"INCLINATION":65.0108,"RA_OF_ASC_NODE":201.5534,"ARG_OF_PERICENTER":280.6259,"MEAN_ANOMALY":79.3113,"EPHEMERIS_TYPE":0,"CLASSIFICATION_TYPE":"U","NORAD_CAT_ID":18187,"ELEMENT_SET_NO":999,"REV_AT_EPOCH":2531,"BSTAR":1.1158841e-5,"MEAN_MOTION_DOT":-7.1e-7,"MEAN_MOTION_DDOT":0},{"OBJECT_NAME":"SL-14 R/B","OBJECT_ID":"1988-001B","EPOCH":"2026-04-16T02:58:09.208416","MEAN_MOTION":14.85565184,"ECCENTRICITY":0.00195453,"INCLINATION":82.5139,"RA_OF_ASC_NODE":160.1619,"ARG_OF_PERICENTER":112.9446,"MEAN_ANOMALY":247.3835,"EPHEMERIS_TYPE":0,"CLASSIFICATION_TYPE":"U","NORAD_CAT_ID":18749,"ELEMENT_SET_NO":999,"REV_AT_EPOCH":4758,"BSTAR":2.1876171e-5,"MEAN_MOTION_DOT":2.14e-6,"MEAN_MOTION_DDOT":0},{"OBJECT_NAME":"COSMOS 1933","OBJECT_ID":"1988-020A","EPOCH":"2026-04-16T07:02:27.797856","MEAN_MOTION":15.18336097,"ECCENTRICITY":0.00053675,"INCLINATION":82.5153,"RA_OF_ASC_NODE":213.7001,"ARG_OF_PERICENTER":77.445,"MEAN_ANOMALY":282.7384,"EPHEMERIS_TYPE":0,"CLASSIFICATION_TYPE":"U","NORAD_CAT_ID":18958,"ELEMENT_SET_NO":999,"REV_AT_EPOCH":5593,"BSTAR":0.00011294667,"MEAN_MOTION_DOT":2.349e-5,"MEAN_MOTION_DDOT":0},{"OBJECT_NAME":"SL-3 R/B","OBJECT_ID":"1988-032B","EPOCH":"2026-04-16T04:30:20.259072","MEAN_MOTION":15.2031201,"ECCENTRICITY":0.00276481,"INCLINATION":97.523,"RA_OF_ASC_NODE":89.3296,"ARG_OF_PERICENTER":102.4864,"MEAN_ANOMALY":257.9467,"EPHEMERIS_TYPE":0,"CLASSIFICATION_TYPE":"U","NORAD_CAT_ID":19046,"ELEMENT_SET_NO":999,"REV_AT_EPOCH":5780,"BSTAR":0.0001282827,"MEAN_MOTION_DOT":2.744e-5,"MEAN_MOTION_DDOT":0},{"OBJECT_NAME":"SL-16 R/B","OBJECT_ID":"1988-039B","EPOCH":"2026-04-16T02:44:14.320896","MEAN_MOTION":14.19622766,"ECCENTRICITY":0.00240509,"INCLINATION":71.0166,"RA_OF_ASC_NODE":349.4158,"ARG_OF_PERICENTER":281.3194,"MEAN_ANOMALY":78.5228,"EPHEMERIS_TYPE":0,"CLASSIFICATION_TYPE":"U","NORAD_CAT_ID":19120,"ELEMENT_SET_NO":999,"REV_AT_EPOCH":96369,"BSTAR":8.92336e-7,"MEAN_MOTION_DOT":-4.6e-7,"MEAN_MOTION_DDOT":0},{"OBJECT_NAME":"COSMOS 1953","OBJECT_ID":"1988-050A","EPOCH":"2026-04-16T07:49:10.747776","MEAN_MOTION":15.29095067,"ECCENTRICITY":0.00105531,"INCLINATION":82.5046,"RA_OF_ASC_NODE":120.3707,"ARG_OF_PERICENTER":2.2072,"MEAN_ANOMALY":357.9212,"EPHEMERIS_TYPE":0,"CLASSIFICATION_TYPE":"U","NORAD_CAT_ID":19210,"ELEMENT_SET_NO":999,"REV_AT_EPOCH":4353,"BSTAR":0.00015799543,"MEAN_MOTION_DOT":4.501e-5,"MEAN_MOTION_DDOT":0}]
